ONEWEB-0291             
1 49081U 21075G   26025.02359289  .00000065  00000+0  13454-3 0  9990
2 49081  87.9098  34.3018 0002094  99.6649 260.4719 13.17651218214755
ONEWEB-0293             
1 49082U 21075H   26025.04890536 -.00000019  00000+0 -81147-4 0  9994
2 49082  87.9089  34.3123 0001801  95.0711 265.0626 13.17650921214789
ONEWEB-0294             
1 49083U 21075J   26024.92835828 -.00000342  00000+0 -98744-3 0  9993
2 49083  87.8940  19.0967 0001655  97.9390 262.1927 13.12441762215781
ONEWEB-0295             
1 49084U 21075K   26025.04806620  .00000003  00000+0 -25158-4 0  9999
2 49084  87.9084  34.3169 0002149  95.7168 264.4209 13.17647707214749
ONEWEB-0296             
1 49085U 21075L   26024.98427740  .00000142  00000+0  36073-3 0  9994
2 49085  87.8939  19.0881 0002083  96.8111 263.3255 13.12440929215793
ONEWEB-0297             
1 49086U 21075M   26024.93852965 -.00000359  00000+0 -10338-2 0  9998
2 49086  87.8935  19.1255 0001906  86.8994 273.2352 13.12444461216397
ONEWEB-0298             
1 49087U 21075N   26024.97648097  .00000040  00000+0  69146-4 0  9990
2 49087  87.9084  34.3276 0001930  85.9632 274.1720 13.17647027214768
ONEWEB-0299             
1 49088U 21075P   26025.05396471  .00000019  00000+0  16623-4 0  9995
2 49088  87.9097  34.2787 0002012  91.0619 269.0743 13.17651067214750
